{
  "type": "FeatureCollection",
  "features": [
    {
      "type": "Feature",
      "properties": {
        "norad_id": 38001,
        "name": "COSMOS 2251 DEB",
        "group": "cosmos-2251-debris",
        "lat": 1.9038744282372904,
        "lon": -47.23563095600181,
        "alt_km": 646.2005853682276,
        "timestamp": "2025-12-12T05:47:29.169413+00:00",
        "meta_object_name": "COSMOS 2251 DEB",
        "meta_object_id": "1993-036BRC",
        "meta_epoch": "2025-12-10T21:13:30.070848",
        "meta_mean_motion": 14.79039652,
        "meta_eccentricity": 0.0065474,
        "meta_inclination": 74.0007,
        "meta_ra_of_asc_node": 135.9844,
        "meta_arg_of_pericenter": 285.8073,
        "meta_mean_anomaly": 230.7209,
        "meta_ephemeris_type": 0,
        "meta_classification_type": "U",
        "meta_norad_cat_id": 38001,
        "meta_element_set_no": 999,
        "meta_rev_at_epoch": 74680,
        "meta_bstar": 0.0012082,
        "meta_mean_motion_dot": 9.24e-05,
        "meta_mean_motion_ddot": 0,
        "tle_line1": "1 38001U 93036BRC 25344.88437582  .00009240  00000+0  12082-2 0  9995",
        "tle_line2": "2 38001  74.0007 135.9844 0065474 285.8073 230.7209 14.79039652746809"
      },
      "geometry": {
        "type": "Point",
        "coordinates": [
          -47.23563095600181,
          1.9038744282372904
        ]
      }
    },
    {
      "type": "Feature",
      "properties": {
        "norad_id": 38006,
        "name": "COSMOS 2251 DEB",
        "group": "cosmos-2251-debris",
        "lat": 71.0551718725415,
        "lon": 96.43725836751065,
        "alt_km": 736.889747367446,
        "timestamp": "2025-12-12T05:47:29.169424+00:00",
        "meta_object_name": "COSMOS 2251 DEB",
        "meta_object_id": "1993-036BRH",
        "meta_epoch": "2025-12-10T03:36:37.956384",
        "meta_mean_motion": 14.45867865,
        "meta_eccentricity": 0.00758537,
        "meta_inclination": 73.8744,
        "meta_ra_of_asc_node": 42.933,
        "meta_arg_of_pericenter": 348.3853,
        "meta_mean_anomaly": 11.555,
        "meta_ephemeris_type": 0,
        "meta_classification_type": "U",
        "meta_norad_cat_id": 38006,
        "meta_element_set_no": 999,
        "meta_rev_at_epoch": 62922,
        "meta_bstar": 0.0047338847,
        "meta_mean_motion_dot": 0.00017443,
        "meta_mean_motion_ddot": 0,
        "tle_line1": "1 38006U 93036BRH 25344.15043931  .00017443  00000+0  47339-2 0  9998",
        "tle_line2": "2 38006  73.8744  42.9330 0075853 348.3853  11.5550 14.45867865629227"
      },
      "geometry": {
        "type": "Point",
        "coordinates": [
          96.43725836751065,
          71.0551718725415
        ]
      }
    },
    {
      "type": "Feature",
      "properties": {
        "norad_id": 38054,
        "name": "COSMOS 2251 DEB",
        "group": "cosmos-2251-debris",
        "lat": -9.472508804209715,
        "lon": -96.13660125294093,
        "alt_km": 1092.839454600702,
        "timestamp": "2025-12-12T05:47:29.169433+00:00",
        "meta_object_name": "COSMOS 2251 DEB",
        "meta_object_id": "1993-036BRL",
        "meta_epoch": "2025-12-06T19:35:06.065952",
        "meta_mean_motion": 13.62293123,
        "meta_eccentricity": 0.0360398,
        "meta_inclination": 73.9587,
        "meta_ra_of_asc_node": 275.4844,
        "meta_arg_of_pericenter": 254.7432,
        "meta_mean_anomaly": 133.9151,
        "meta_ephemeris_type": 0,
        "meta_classification_type": "U",
        "meta_norad_cat_id": 38054,
        "meta_element_set_no": 999,
        "meta_rev_at_epoch": 67099,
        "meta_bstar": 0.0049752628,
        "meta_mean_motion_dot": 5.934e-05,
        "meta_mean_motion_ddot": 0,
        "tle_line1": "1 38054U 93036BRL 25340.81604243  .00005934  00000+0  49753-2 0  9993",
        "tle_line2": "2 38054  73.9587 275.4844 0360398 254.7432 133.9151 13.62293123670997"
      },
      "geometry": {
        "type": "Point",
        "coordinates": [
          -96.13660125294093,
          -9.472508804209715
        ]
      }
    },
    {
      "type": "Feature",
      "properties": {
        "norad_id": 38055,
        "name": "COSMOS 2251 DEB",
        "group": "cosmos-2251-debris",
        "lat": 67.08374118656906,
        "lon": -109.54946161063486,
        "alt_km": 638.1477521879051,
        "timestamp": "2025-12-12T05:47:29.169443+00:00",
        "meta_object_name": "COSMOS 2251 DEB",
        "meta_object_id": "1993-036BRM",
        "meta_epoch": "2025-12-11T09:07:57.721152",
        "meta_mean_motion": 14.76955256,
        "meta_eccentricity": 0.00657701,
        "meta_inclination": 74.0089,
        "meta_ra_of_asc_node": 209.4259,
        "meta_arg_of_pericenter": 337.2903,
        "meta_mean_anomaly": 200.444,
        "meta_ephemeris_type": 0,
        "meta_classification_type": "U",
        "meta_norad_cat_id": 38055,
        "meta_element_set_no": 999,
        "meta_rev_at_epoch": 60662,
        "meta_bstar": 0.0014257024,
        "meta_mean_motion_dot": 0.00010385,
        "meta_mean_motion_ddot": 0,
        "tle_line1": "1 38055U 93036BRM 25345.38052918  .00010385  00000+0  14257-2 0  9994",
        "tle_line2": "2 38055  74.0089 209.4259 0065770 337.2903 200.4440 14.76955256606628"
      },
      "geometry": {
        "type": "Point",
        "coordinates": [
          -109.54946161063486,
          67.08374118656906
        ]
      }
    },
    {
      "type": "Feature",
      "properties": {
        "norad_id": 38060,
        "name": "COSMOS 2251 DEB",
        "group": "cosmos-2251-debris",
        "lat": -37.87479268628502,
        "lon": -76.59397548598467,
        "alt_km": 680.9325710277471,
        "timestamp": "2025-12-12T05:47:29.169453+00:00",
        "meta_object_name": "COSMOS 2251 DEB",
        "meta_object_id": "1993-036BRS",
        "meta_epoch": "2025-12-11T05:22:06.825504",
        "meta_mean_motion": 14.63841303,
        "meta_eccentricity": 0.00580419,
        "meta_inclination": 74.0431,
        "meta_ra_of_asc_node": 298.2163,
        "meta_arg_of_pericenter": 44.676,
        "meta_mean_anomaly": 315.9062,
        "meta_ephemeris_type": 0,
        "meta_classification_type": "U",
        "meta_norad_cat_id": 38060,
        "meta_element_set_no": 999,
        "meta_rev_at_epoch": 71942,
        "meta_bstar": 0.00092465515,
        "meta_mean_motion_dot": 4.921e-05,
        "meta_mean_motion_ddot": 0,
        "tle_line1": "1 38060U 93036BRS 25345.22369011  .00004921  00000+0  92466-3 0  9996",
        "tle_line2": "2 38060  74.0431 298.2163 0058041  44.6760 315.9062 14.63841303719426"
      },
      "geometry": {
        "type": "Point",
        "coordinates": [
          -76.59397548598467,
          -37.87479268628502
        ]
      }
    },
    {
      "type": "Feature",
      "properties": {
        "norad_id": 38062,
        "name": "COSMOS 2251 DEB",
        "group": "cosmos-2251-debris",
        "lat": -50.325669669912074,
        "lon": 131.7087023321186,
        "alt_km": 598.1909517814374,
        "timestamp": "2025-12-12T05:47:29.169463+00:00",
        "meta_object_name": "COSMOS 2251 DEB",
        "meta_object_id": "1993-036BRU",
        "meta_epoch": "2025-12-06T04:12:38.753856",
        "meta_mean_motion": 14.94290132,
        "meta_eccentricity": 0.00122346,
        "meta_inclination": 74.0094,
        "meta_ra_of_asc_node": 303.7202,
        "meta_arg_of_pericenter": 72.1633,
        "meta_mean_anomaly": 298.7726,
        "meta_ephemeris_type": 0,
        "meta_classification_type": "U",
        "meta_norad_cat_id": 38062,
        "meta_element_set_no": 999,
        "meta_rev_at_epoch": 62932,
        "meta_bstar": 0.0035053507,
        "meta_mean_motion_dot": 0.00037877,
        "meta_mean_motion_ddot": 0,
        "tle_line1": "1 38062U 93036BRU 25340.17544854  .00037877  00000+0  35054-2 0  9992",
        "tle_line2": "2 38062  74.0094 303.7202 0012234  72.1633 298.7726 14.94290132629324"
      },
      "geometry": {
        "type": "Point",
        "coordinates": [
          131.7087023321186,
          -50.325669669912074
        ]
      }
    },
    {
      "type": "Feature",
      "properties": {
        "norad_id": 38064,
        "name": "COSMOS 2251 DEB",
        "group": "cosmos-2251-debris",
        "lat": -39.35787474810369,
        "lon": -41.32523942244849,
        "alt_km": 680.43763708386,
        "timestamp": "2025-12-12T05:47:29.169473+00:00",
        "meta_object_name": "COSMOS 2251 DEB",
        "meta_object_id": "1993-036BRW",
        "meta_epoch": "2025-12-11T15:35:10.141152",
        "meta_mean_motion": 14.5628474,
        "meta_eccentricity": 0.00474911,
        "meta_inclination": 74.0221,
        "meta_ra_of_asc_node": 126.2067,
        "meta_arg_of_pericenter": 246.0166,
        "meta_mean_anomaly": 113.6022,
        "meta_ephemeris_type": 0,
        "meta_classification_type": "U",
        "meta_norad_cat_id": 38064,
        "meta_element_set_no": 999,
        "meta_rev_at_epoch": 71849,
        "meta_bstar": 0.001607911,
        "meta_mean_motion_dot": 7.206e-05,
        "meta_mean_motion_ddot": 0,
        "tle_line1": "1 38064U 93036BRW 25345.64942293  .00007206  00000+0  16079-2 0  9999",
        "tle_line2": "2 38064  74.0221 126.2067 0047491 246.0166 113.6022 14.56284740718498"
      },
      "geometry": {
        "type": "Point",
        "coordinates": [
          -41.32523942244849,
          -39.35787474810369
        ]
      }
    }
  ]
}